CUTE-1 (CO-55)          
1 27844U 03031E   25016.97857160  .00000643  00000+0  30047-3 0  9998
2 27844  98.6781  27.1085 0008724 241.6048 118.4252 14.23768216118233
CUBESAT XI-IV (CO-57)   
1 27848U 03031J   25017.00194740  .00000547  00000+0  26142-3 0  9999
2 27848  98.6808  27.2421 0008502 260.4758  99.5460 14.23136403117992
MOZHAYETS 4 (RS-22)     
1 27939U 03042A   25017.37320484  .00002398  00000+0  39353-3 0  9992
2 27939  98.3100 183.5542 0012640 102.2288 280.0042 14.71594642139762
IRS-P6 (RESOURCESAT-1)  
1 28051U 03046A   25017.41516606  .00000449  00000+0  16523-3 0  9999
2 28051  98.2651  72.2250 0065859  88.5321   1.4737 14.35831978106533
SAUDISAT 2              
1 28371U 04025F   25016.94432879  .00000749  00000+0  18020-3 0  9995
2 28371  98.5107 359.8504 0026209  82.9336 277.4840 14.56062847 90641
COSMOS 2407             
1 28380U 04028A   25016.45484495  .00000113  00000+0  99882-4 0  9996
2 28380  82.9601  97.5086 0037900 256.9728 119.2096 13.76266240 28805
COSMOS 2414             
1 28521U 05002A   25016.55837788  .00000129  00000+0  95190-4 0  9999
2 28521  82.9480  74.3900 0040124   4.7170 355.4363 13.87845467 12481
INMARSAT 4-F1           
1 28628U 05009A   25016.60897698  .00000034  00000+0  00000+0 0  9992
2 28628   4.5131  41.8725 0002526 268.8958 202.7901  1.00274126 72496
HAMSAT (VO-52)          
1 28650U 05017B   25016.97642279  .00008551  00000+0  64502-3 0  9992
2 28650  98.0009  15.1713 0021373 344.7419  15.3158 15.02522309 69103
NOAA 18                 
1 28654U 05018A   25017.28638263  .00000382  00000+0  22605-3 0  9992
2 28654  98.8562  98.3181 0014468 172.7280 187.4105 14.13488533 13500
SJ-7                    
1 28737U 05024A   25017.03810335  .00011681  00000+0  69638-3 0  9997
2 28737  97.7660  30.7256 0020307  17.5716 342.6212 15.11159076 69805
CUBESAT XI-V            
1 28895U 05043F   25017.35649803  .00003309  00000+0  56017-3 0  9993
2 28895  98.2262 160.2162 0015599  43.5388 316.7045 14.69931695 26121
CLOUDSAT                
1 29107U 06016A   25016.94093704  .00002874  00000+0  34917-3 0  9999
2 29107  98.4222  19.9415 0005092 184.9316 175.1848 14.84369714997854
CALIPSO                 
1 29108U 06016B   25016.97261346  .00002510  00000+0  45242-3 0  9992
2 29108  98.4390  10.6516 0001741  89.6369 270.5034 14.67453597997285
HINODE (SOLAR-B)        
1 29479U 06041A   25017.38696067  .00001295  00000+0  23684-3 0  9994
2 29479  98.0809  35.7695 0018887 121.2692 239.0366 14.67447473979198
METOP-A                 
1 29499U 06044A   25016.88013167  .00003450  00000+0  42330-3 0  9991
2 29499  98.3387 103.6972 0181201 272.3554 151.3492 14.72852552952217
SHIJIAN-6 02B (SJ-6 02B)
1 29506U 06046B   25017.31527075  .00001685  00000+0  14415-3 0  9990
2 29506  97.7220  46.2164 0001751 349.3348  10.7837 14.98944710993398
DMSP 5D-3 F17 (USA 191) 
1 29522U 06050A   25017.43084009  .00000304  00000+0  18016-3 0  9999
2 29522  98.7420  29.5882 0011051  89.3314 270.9125 14.14725779939488
LAPAN-TUBSAT            
1 29709U 07001A   25017.29393158  .00001331  00000+0  16286-3 0  9993
2 29709  98.0952   1.3476 0013745  67.4321 292.8346 14.84899534974577
HAIYANG-1B              
1 31113U 07010A   25016.96010744  .00000224  00000+0  10112-3 0  9997
2 31113  98.3056  15.3530 0012515 294.4831  65.5047 14.30804756927546
BEIDOU-2 M1             
1 31115U 07011A   25016.34289627  .00000034  00000+0  00000+0 0  9990
2 31115  51.1377 236.4559 0002813  26.0068 334.0713  1.77349321 66984
CAPE-1                  
1 31130U 07012P   25017.43340177  .00002907  00000+0  55519-3 0  9997
2 31130  98.3799 336.1013 0085778 239.6673 119.6024 14.62408223942889
CBERS 2B                
1 32062U 07042A   25017.43518642  .00000565  00000+0  18771-3 0  9996
2 32062  98.3313 328.1346 0032495  88.3023  24.8545 14.40992888910456
COSMO-SKYMED 2          
1 32376U 07059A   25017.38058319  .00001195  00000+0  15668-3 0  9998
2 32376  97.8868 203.4362 0001407  88.0123 272.1251 14.82141390925675
CARTOSAT-2A             
1 32783U 08021A   25017.34248218  .00001410  00000+0  19875-3 0  9999
2 32783  97.8382  76.6399 0011453 352.6968   7.4075 14.78738988902653
CUTE-1.7+APD II (CO-65) 
1 32785U 08021C   25016.88652988  .00007373  00000+0  57250-3 0  9995
2 32785  97.7686 347.4348 0009400 358.0190   2.0995 15.01605192907496
COMPASS-1               
1 32787U 08021E   25016.44226231  .00037668  00000+0  13560-2 0  9992
2 32787  97.6389   1.0265 0007258 154.4265 205.7335 15.28465681910162
AAUSAT-II               
1 32788U 08021F   25016.91537906  .00074110  00000+0  17069-2 0  9990
2 32788  97.6048   7.2596 0006760 109.3309 250.8669 15.42320033911052
SEEDS II (CO-66)        
1 32791U 08021J   25017.47282254  .00018341  00000+0  10482-2 0  9995
2 32791  97.7150 355.0538 0002962 327.9510  32.1539 15.12746520908898
YUBILEINY (RS-30)       
1 32953U 08025A   25017.39020940  .00000046  00000+0  25956-3 0  9998
2 32953  82.5060 316.2515 0019891   0.9679 359.1436 12.43157324755748
FENGYUN 3A              
1 32958U 08026A   25017.35651184  .00000289  00000+0  15809-3 0  9995
2 32958  98.6323 324.5890 0008808 167.7812 192.3579 14.19341414862337
HUANJING 1A (HJ-1A)     
1 33320U 08041A   25017.43169731  .00002828  00000+0  36319-3 0  9997
2 33320  97.6360  20.1721 0020632  34.7251 325.5305 14.81803330882060
HUANJING 1B (HJ-1B)     
1 33321U 08041B   25017.42765125  .00002100  00000+0  27038-3 0  9997
2 33321  97.6271  24.5489 0039057  75.6874 284.8671 14.81574121882085
SHIJIAN-6 03A (SJ-6 03A)
1 33408U 08053A   25016.90118300  .00010261  00000+0  65329-3 0  9997
2 33408  97.8794  28.7363 0013193 346.5581  13.5293 15.08905018884877
SHIJIAN-6 03B (SJ-6 03B)
1 33409U 08053B   25017.47146397  .00005682  00000+0  44783-3 0  9990
2 33409  97.8800  24.1683 0020408 334.2705  25.7502 15.01017543885284
CHUANGXIN 1-02 (CX-1-02)
1 33434U 08056B   25017.36646641  .00000178  00000+0  86235-4 0  9990
2 33434  98.6600  42.4886 0013758 210.8053 149.2323 14.29971552845278
PRISM (HITOMI)          
1 33493U 09002B   25017.14106602  .00092473  00000+0  18197-2 0  9990
2 33493  98.1691  92.6110 0007275 228.3660 131.6965 15.46890881871776
STARS (KUKAI)           
1 33498U 09002G   25016.75723702  .00005944  00000+0  62747-3 0  9995
2 33498  98.1218 301.7925 0011016  72.0745 288.1672 14.89617421861427
KKS-1 (KISEKI)          
1 33499U 09002H   25016.83838954  .00002966  00000+0  39252-3 0  9997
2 33499  98.1279 286.9901 0008672 152.3957 207.7717 14.80686111860142
NOAA 19                 
1 33591U 09005A   25017.34043103  .00000325  00000+0  19756-3 0  9998
2 33591  99.0191  81.1209 0014398  51.3165 308.9292 14.13261407821877
YAOGAN-6                
1 34839U 09021A   25017.46427194  .00061191  00000+0  54983-3 0  9990
2 34839  97.1942 352.2796 0014177  99.0643 261.2223 15.67941605876784
UK-DMC 2                
1 35683U 09041C   25017.32223559  .00001823  00000+0  28106-3 0  9998
2 35683  97.8070 162.7361 0001451  95.3049 264.8326 14.74543052830552
METEOR-M 1              
1 35865U 09049A   25017.41630308  .00000251  00000+0  13085-3 0  9996
2 35865  98.6658 340.8587 0002626  27.8792 332.2527 14.22928732796036
OCEANSAT-2              
1 35931U 09051A   25017.33869215 -.00000139  00000+0 -69521-4 0  9999
2 35931  98.2393  51.1160 0016031 250.2720 109.6717 13.99550479807176
SWISSCUBE               
1 35932U 09051B   25016.67408008  .00002136  00000+0  44915-3 0  9991
2 35932  98.4467 270.1459 0007739  26.5041 333.6552 14.60612662813704
BEESAT-1                
1 35933U 09051C   25017.14351512  .00001880  00000+0  40058-3 0  9991
2 35933  98.4401 271.2237 0006312  38.4830 321.6818 14.60136028813915
ITUPSAT1                
1 35935U 09051E   25017.25013885  .00001808  00000+0  39543-3 0  9990
2 35935  98.4495 270.9845 0008644  42.9508 317.2365 14.58984014813497
DMSP 5D-3 F18 (USA 210) 
1 35951U 09057A   25017.41160111  .00000470  00000+0  26838-3 0  9994
2 35951  98.8426 356.2266 0010111 279.0574  80.9455 14.14469476786648
PROBA-2                 
1 36037U 09059B   25017.48375453  .00000645  00000+0  16234-3 0  9999
2 36037  98.2311 203.4173 0014345  74.6913 285.5868 14.54367500806643
YAOGAN-7                
1 36110U 09069A   25017.27524972  .00001303  00000+0  19151-3 0  9994
2 36110  98.0767 259.5058 0023684 260.6942  99.1589 14.77039865813481
XIWANG-1 (HOPE-1)       
1 36122U 09072B   25017.43383309 -.00000008  00000+0  95036-4 0  9995
2 36122 100.3289 336.3685 0007292 337.5547  22.5246 13.16417373725244
RADUGA-1M 2             
1 36358U 10002A   25017.05361269 -.00000180  00000+0  00000+0 0  9993
2 36358   2.2745  85.6115 0005089 211.7107 283.6424  1.00269457 54837
COSMOS 2463             
1 36519U 10017A   25017.17713937  .00000091  00000+0  82885-4 0  9990
2 36519  82.9596 268.8336 0037244 120.7714 349.3799 13.71607630737288
CARTOSAT-2B             
1 36795U 10035A   25017.44638957  .00001402  00000+0  19771-3 0  9994
2 36795  97.8321  76.2207 0013004  65.5160 294.7406 14.78720314783712
AISSAT 1                
1 36797U 10035C   25016.62719359  .00003389  00000+0  32569-3 0  9997
2 36797  98.1556 252.0982 0009262 332.7831  27.2901 14.93733685787138
TISAT 1                 
1 36799U 10035E   25016.71296969  .00014742  00000+0  88736-3 0  9998
2 36799  98.0694 282.3522 0002105 206.7058 153.4062 15.10931836789206
YAOGAN-10               
1 36834U 10038A   25017.31877437  .00001366  00000+0  17153-3 0  9996
2 36834  97.9372  39.2443 0001424  82.2536  39.4016 14.83761560780745
SHIJIAN-6 04B (SJ-6 04B)
1 37180U 10051B   25017.40911686  .00002493  00000+0  21863-3 0  9996
2 37180  97.8547  13.5029 0009125 229.6471 130.3955 14.97558593778452
FENGYUN 3B              
1 37214U 10059A   25017.38240837  .00000173  00000+0  11338-3 0  9991
2 37214  99.0335  54.2475 0021771 205.0426 213.2287 14.14662456734538
